IRIDIUM 57 [-]          
1 25273U 98019B   24086.59623261  .00000874  00000+0  29940-3 0  9995
2 25273  86.3988 332.7310 0002152  87.6254 272.5189 14.35132059360572
IRIDIUM 63 [-]          
1 25286U 98021B   24086.58133005  .00001125  00000+0  38350-3 0  9998
2 25286  86.3925 269.6206 0001889  88.6652 271.4761 14.35653360359607
IRIDIUM 69 [-]          
1 25319U 98026A   24086.61369691  .00001348  00000+0  42333-3 0  9999
2 25319  86.3923 284.2550 0004231  72.4985 287.6676 14.39852501358639
IRIDIUM 71 [-]          
1 25320U 98026B   24086.56251530  .00001325  00000+0  41337-3 0  9995
2 25320  86.3917 279.0510 0004048 106.1916 253.9729 14.40178105359142
IRIDIUM 73 [-]          
1 25344U 98032C   24086.44811072  .00002211  00000+0  56162-3 0  9995
2 25344  86.4412 236.6272 0002669  85.4065 274.7445 14.50377234365636
IRIDIUM 82 [-]          
1 25467U 98051A   24086.38123645  .00029737  00000+0  15759-2 0  9995
2 25467  86.3832 324.9901 0134357 163.8215 196.7377 15.07689001356004
IRIDIUM 2 [-]           
1 25527U 98066A   24086.47334054  .00117816  00000+0  13293-2 0  9993
2 25527  85.5149 356.6287 0002421  85.2204 274.9337 15.62116328394918
